{
  "type": "FeatureCollection",
  "features": [
    {
      "type": "Feature",
      "properties": {
        "norad_id": 33835,
        "name": "COSMOS 2251 DEB",
        "group": "cosmos-2251-debris",
        "lat": -12.593078045840285,
        "lon": 101.17812467251623,
        "alt_km": 728.5646095279726,
        "timestamp": "2025-12-10T18:57:00.457850+00:00",
        "meta_object_name": "COSMOS 2251 DEB",
        "meta_object_id": "1993-036CC",
        "meta_epoch": "2025-12-10T11:07:25.377024",
        "meta_mean_motion": 14.6220946,
        "meta_eccentricity": 0.0054915,
        "meta_inclination": 74.0573,
        "meta_ra_of_asc_node": 105.4629,
        "meta_arg_of_pericenter": 159.6405,
        "meta_mean_anomaly": 271.5849,
        "meta_ephemeris_type": 0,
        "meta_classification_type": "U",
        "meta_norad_cat_id": 33835,
        "meta_element_set_no": 999,
        "meta_rev_at_epoch": 88756,
        "meta_bstar": 0.0018015,
        "meta_mean_motion_dot": 9.255e-05,
        "meta_mean_motion_ddot": 0,
        "tle_line1": "1 33835U 93036CC  25344.46348816  .00009255  00000+0  18015-2 0  9998",
        "tle_line2": "2 33835  74.0573 105.4629 0054915 159.6405 271.5849 14.62209460887565"
      },
      "geometry": {
        "type": "Point",
        "coordinates": [
          101.17812467251623,
          -12.593078045840285
        ]
      }
    },
    {
      "type": "Feature",
      "properties": {
        "norad_id": 33836,
        "name": "COSMOS 2251 DEB",
        "group": "cosmos-2251-debris",
        "lat": -64.04117661603728,
        "lon": 118.9201523141931,
        "alt_km": 648.2381182573235,
        "timestamp": "2025-12-10T18:57:00.457864+00:00",
        "meta_object_name": "COSMOS 2251 DEB",
        "meta_object_id": "1993-036CD",
        "meta_epoch": "2025-12-10T11:51:30.155328",
        "meta_mean_motion": 14.79546656,
        "meta_eccentricity": 0.0022546,
        "meta_inclination": 73.9971,
        "meta_ra_of_asc_node": 263.3815,
        "meta_arg_of_pericenter": 117.4126,
        "meta_mean_anomaly": 358.4103,
        "meta_ephemeris_type": 0,
        "meta_classification_type": "U",
        "meta_norad_cat_id": 33836,
        "meta_element_set_no": 999,
        "meta_rev_at_epoch": 64055,
        "meta_bstar": 0.0020301,
        "meta_mean_motion_dot": 0.00015261,
        "meta_mean_motion_ddot": 0,
        "tle_line1": "1 33836U 93036CD  25344.49409902  .00015261  00000+0  20301-2 0  9991",
        "tle_line2": "2 33836  73.9971 263.3815 0022546 117.4126 358.4103 14.79546656640557"
      },
      "geometry": {
        "type": "Point",
        "coordinates": [
          118.9201523141931,
          -64.04117661603728
        ]
      }
    },
    {
      "type": "Feature",
      "properties": {
        "norad_id": 33837,
        "name": "COSMOS 2251 DEB",
        "group": "cosmos-2251-debris",
        "lat": 65.2461072281017,
        "lon": 97.71429052323897,
        "alt_km": 738.6028956616601,
        "timestamp": "2025-12-10T18:57:00.457875+00:00",
        "meta_object_name": "COSMOS 2251 DEB",
        "meta_object_id": "1993-036CE",
        "meta_epoch": "2025-12-10T12:00:13.132800",
        "meta_mean_motion": 14.50694063,
        "meta_eccentricity": 0.0035854,
        "meta_inclination": 74.0131,
        "meta_ra_of_asc_node": 59.8143,
        "meta_arg_of_pericenter": 281.8983,
        "meta_mean_anomaly": 77.8158,
        "meta_ephemeris_type": 0,
        "meta_classification_type": "U",
        "meta_norad_cat_id": 33837,
        "meta_element_set_no": 999,
        "meta_rev_at_epoch": 88763,
        "meta_bstar": 0.00043241,
        "meta_mean_motion_dot": 1.685e-05,
        "meta_mean_motion_ddot": 0,
        "tle_line1": "1 33837U 93036CE  25344.50015200  .00001685  00000+0  43241-3 0  9992",
        "tle_line2": "2 33837  74.0131  59.8143 0035854 281.8983  77.8158 14.50694063887632"
      },
      "geometry": {
        "type": "Point",
        "coordinates": [
          97.71429052323897,
          65.2461072281017
        ]
      }
    },
    {
      "type": "Feature",
      "properties": {
        "norad_id": 33838,
        "name": "COSMOS 2251 DEB",
        "group": "cosmos-2251-debris",
        "lat": -38.42225173818598,
        "lon": 140.34193135969386,
        "alt_km": 723.0835497304915,
        "timestamp": "2025-12-10T18:57:00.457884+00:00",
        "meta_object_name": "COSMOS 2251 DEB",
        "meta_object_id": "1993-036CF",
        "meta_epoch": "2025-12-10T12:45:49.101120",
        "meta_mean_motion": 14.48352487,
        "meta_eccentricity": 0.0027484,
        "meta_inclination": 74.0364,
        "meta_ra_of_asc_node": 153.9483,
        "meta_arg_of_pericenter": 276.1404,
        "meta_mean_anomaly": 139.9769,
        "meta_ephemeris_type": 0,
        "meta_classification_type": "U",
        "meta_norad_cat_id": 33838,
        "meta_element_set_no": 999,
        "meta_rev_at_epoch": 88537,
        "meta_bstar": 0.00063522,
        "meta_mean_motion_dot": 2.361e-05,
        "meta_mean_motion_ddot": 0,
        "tle_line1": "1 33838U 93036CF  25344.53181830  .00002361  00000+0  63522-3 0  9995",
        "tle_line2": "2 33838  74.0364 153.9483 0027484 276.1404 139.9769 14.48352487885374"
      },
      "geometry": {
        "type": "Point",
        "coordinates": [
          140.34193135969386,
          -38.42225173818598
        ]
      }
    },
    {
      "type": "Feature",
      "properties": {
        "norad_id": 33839,
        "name": "COSMOS 2251 DEB",
        "group": "cosmos-2251-debris",
        "lat": 44.04708475672625,
        "lon": 14.156309663685107,
        "alt_km": 734.1540769634576,
        "timestamp": "2025-12-10T18:57:00.457894+00:00",
        "meta_object_name": "COSMOS 2251 DEB",
        "meta_object_id": "1993-036CG",
        "meta_epoch": "2025-12-10T02:39:10.870272",
        "meta_mean_motion": 14.64409066,
        "meta_eccentricity": 0.00850434,
        "meta_inclination": 74.039,
        "meta_ra_of_asc_node": 211.5319,
        "meta_arg_of_pericenter": 324.2198,
        "meta_mean_anomaly": 190.8641,
        "meta_ephemeris_type": 0,
        "meta_classification_type": "U",
        "meta_norad_cat_id": 33839,
        "meta_element_set_no": 999,
        "meta_rev_at_epoch": 89541,
        "meta_bstar": 0.00034371631,
        "meta_mean_motion_dot": 1.883e-05,
        "meta_mean_motion_ddot": 0,
        "tle_line1": "1 33839U 93036CG  25344.11054248  .00001883  00000+0  34372-3 0  9991",
        "tle_line2": "2 33839  74.0390 211.5319 0085043 324.2198 190.8641 14.64409066895418"
      },
      "geometry": {
        "type": "Point",
        "coordinates": [
          14.156309663685107,
          44.04708475672625
        ]
      }
    },
    {
      "type": "Feature",
      "properties": {
        "norad_id": 33841,
        "name": "COSMOS 2251 DEB",
        "group": "cosmos-2251-debris",
        "lat": 47.8563561351389,
        "lon": -59.929318935045416,
        "alt_km": 751.2037154506716,
        "timestamp": "2025-12-10T18:57:00.457904+00:00",
        "meta_object_name": "COSMOS 2251 DEB",
        "meta_object_id": "1993-036CJ",
        "meta_epoch": "2025-12-10T07:46:17.469120",
        "meta_mean_motion": 14.37855141,
        "meta_eccentricity": 0.0020427,
        "meta_inclination": 74.0377,
        "meta_ra_of_asc_node": 282.4898,
        "meta_arg_of_pericenter": 3.3922,
        "meta_mean_anomaly": 156.9543,
        "meta_ephemeris_type": 0,
        "meta_classification_type": "U",
        "meta_norad_cat_id": 33841,
        "meta_element_set_no": 999,
        "meta_rev_at_epoch": 88079,
        "meta_bstar": 0.00041232,
        "meta_mean_motion_dot": 1.22e-05,
        "meta_mean_motion_ddot": 0,
        "tle_line1": "1 33841U 93036CJ  25344.32381330  .00001220  00000+0  41232-3 0  9990",
        "tle_line2": "2 33841  74.0377 282.4898 0020427   3.3922 156.9543 14.37855141880798"
      },
      "geometry": {
        "type": "Point",
        "coordinates": [
          -59.929318935045416,
          47.8563561351389
        ]
      }
    },
    {
      "type": "Feature",
      "properties": {
        "norad_id": 33842,
        "name": "COSMOS 2251 DEB",
        "group": "cosmos-2251-debris",
        "lat": -74.00867735704409,
        "lon": 135.78216221574368,
        "alt_km": 739.7691969862926,
        "timestamp": "2025-12-10T18:57:00.457914+00:00",
        "meta_object_name": "COSMOS 2251 DEB",
        "meta_object_id": "1993-036CK",
        "meta_epoch": "2025-12-10T09:22:29.199072",
        "meta_mean_motion": 14.42690233,
        "meta_eccentricity": 0.004723,
        "meta_inclination": 74.0331,
        "meta_ra_of_asc_node": 224.012,
        "meta_arg_of_pericenter": 331.8075,
        "meta_mean_anomaly": 28.0525,
        "meta_ephemeris_type": 0,
        "meta_classification_type": "U",
        "meta_norad_cat_id": 33842,
        "meta_element_set_no": 999,
        "meta_rev_at_epoch": 88303,
        "meta_bstar": 0.0004689,
        "meta_mean_motion_dot": 1.554e-05,
        "meta_mean_motion_ddot": 0,
        "tle_line1": "1 33842U 93036CK  25344.39061573  .00001554  00000+0  46890-3 0  9997",
        "tle_line2": "2 33842  74.0331 224.0120 0047230 331.8075  28.0525 14.42690233883032"
      },
      "geometry": {
        "type": "Point",
        "coordinates": [
          135.78216221574368,
          -74.00867735704409
        ]
      }
    }
  ]
}